COSMOS 2058             
1 20465U 90010A   26072.35580419  .00004582  00000+0  26989-3 0  9994
2 20465  82.4667  43.8151 0008814 332.3646  27.7114 15.11357579942799
SL-14 R/B               
1 20466U 90010B   26072.46390196  .00000530  00000+0  61291-4 0  9993
2 20466  82.4985 263.8423 0018386 288.9345  70.9877 14.83572634929044
SL-14 R/B               
1 20511U 90018B   26072.35035118  .00000629  00000+0  75927-4 0  9990
2 20511  82.5209 219.6678 0017632  80.9566 279.3643 14.82149514923129
HST                     
1 20580U 90037B   26072.13994533  .00008230  00000+0  27135-3 0  9991
2 20580  28.4723  16.4622 0001799 159.6118 200.4550 15.29543468773843
SL-16 R/B               
1 20625U 90046B   26072.58524239 -.00000122  00000+0 -38301-4 0  9994
2 20625  70.9979 289.7330 0016209 294.3984  65.5447 14.15011273848946
COSMOS 2084             
1 20663U 90055A   26072.04265797  .00002848  00000+0  20955-3 0  9998
2 20663  62.7918 324.1428 0016560 190.8182 169.2564 15.05673287936828
SL-6 R/B(2)             
1 20666U 90055D   26072.49541932  .00002609  00000+0  20313-3 0  9991
2 20666  62.7824 240.9081 0025405 347.9553  12.0936 15.03616013938767
SL-8 R/B                
1 20775U 90078B   26072.47279884  .00014757  00000+0  43484-3 0  9990
2 20775  82.9000 247.9075 0361440   1.2789 358.9264 14.89192380809864
SL-8 R/B                
1 21088U 91006B   26072.32859919  .00000071  00000+0  55832-4 0  9992
2 21088  82.9465 167.3408 0022864  28.4025  31.7202 13.77494777764577
OKEAN-3                 
1 21397U 91039A   26072.20324312  .00003870  00000+0  27158-3 0  9991
2 21397  82.5199 333.4399 0013623 324.4892  35.5426 15.04834904865562
COSMOS 2151             
1 21422U 91042A   26072.55214406  .00002728  00000+0  21622-3 0  9995
2 21422  82.4930  79.9491 0013810  51.8745 308.3722 15.00121425863778
SL-14 R/B               
1 21423U 91042B   26072.40413051  .00000611  00000+0  74302-4 0  9990
2 21423  82.4931 216.6992 0015987 225.5157 134.4752 14.81834116853620
